[
    {
        "Altitude(m)": 612502.1872905598,
        "Argument of Periapsis(deg)": 0.0,
        "Eccentricity": 0.0,
        "Inclination(deg)": 60.0,
        "Latitude(deg)": -28.135949468573195,
        "Longitude(deg)": 87.14825657941658,
        "Mean Anomaly(deg)": -32.727299999999985,
        "RAAN(deg)": 205.0,
        "Satellite Name": "Test1 922",
        "Satellite Number": 922,
        "Semi-Major Axis(m)": 6980739.136638005,
        "Time(s)": 0
    },
    {
        "Altitude(m)": 612308.635242319,
        "Argument of Periapsis(deg)": 0.00010418945913296404,
        "Eccentricity": 0.0,
        "Inclination(deg)": 60.0,
        "Latitude(deg)": -27.62300468802792,
        "Longitude(deg)": 87.50173049865003,
        "Mean Anomaly(deg)": -32.10719385453813,
        "RAAN(deg)": 204.99957995086024,
        "Satellite Name": "Test1 922",
        "Satellite Number": 922,
        "Semi-Major Axis(m)": 6980739.136638005,
        "Time(s)": 10
    }
]